[Satellite]
VERSION=1.1
NAME=QZS-1 (PRN 183/193)
NICKNAME=QZS-1 (PRN 183/193)
TLE1=1 37158U 10045A   17186.27231714 -.00000134  00000-0  00000-0 0  9993
TLE2=2 37158  40.8572 159.0633 0753743 270.3724  89.7215  1.00273716 24974
